BEIDOU-2 G3             
1 36590U 10024A   26192.85194248 -.00000135  00000+0  00000+0 0  9999
2 36590   4.5707  61.3980 0007099 359.3301 255.3219  1.00268897 59017
BADR-5                  
1 36592U 10025A   26192.92961583  .00000157  00000+0  00000+0 0  9997
2 36592   0.0447 125.6006 0004989  70.4902  98.8729  1.00268787 53464
COMS 1                  
1 36744U 10032A   26192.34657965 -.00000239  00000+0  00000+0 0  9998
2 36744   4.8643  75.0643 0011264  14.7082 301.5980  0.99168841 51325
ARABSAT-5A              
1 36745U 10032B   26192.92961583  .00000157  00000+0  00000+0 0  9995
2 36745   0.1038  65.0011 0005701  55.3469 174.6218  1.00272599 58891
ECHOSTAR 15             
1 36792U 10034A   26192.68374666  .00000005  00000+0  00000+0 0  9994
2 36792   0.0545 270.7559 0001869 177.7655 328.3945  1.00271172 58569
BEIDOU-2 IGSO-1         
1 36828U 10036A   26192.85182554 -.00000089  00000+0  00000+0 0  9991
2 36828  54.3064 162.7376 0058925 225.2565 315.6066  1.00264608 58343
NILESAT 201             
1 36830U 10037A   26192.84873052 -.00000053  00000+0  00000+0 0  9995
2 36830   0.0258 136.4535 0005467   1.5002  90.3533  1.00271738 58627
RASCOM-QAF 1R           
1 36831U 10037B   26192.85063719  .00000023  00000+0  00000+0 0  9994
2 36831   0.0260  79.8570 0006464  21.5780 137.4323  1.00272557 58555
AEHF-1 (USA 214)        
1 36868U 10039A   26192.82622140  .00000144  00000+0  00000+0 0  9996
2 36868   8.2790  67.7230 0003697  37.4198 151.9554  1.00272875 53900
XM-5                    
1 37185U 10053A   26192.68470000 -.00000018  00000+0  00000+0 0  9996
2 37185   0.0649 266.6114 0001688 325.2046 189.0672  1.00268056 57728
BSAT-3B                 
1 37207U 10056B   26192.93175934 -.00000346  00000+0  00000+0 0  9994
2 37207   0.0681 230.3038 0002600 314.3176 190.4814  1.00270842 52343
BEIDOU-2 G4             
1 37210U 10057A   26192.59664398 -.00000112  00000+0  00000+0 0  9999
2 37210   3.7036  68.7942 0005566 185.0953  50.3442  1.00270060 57537
SKYTERRA 1              
1 37218U 10061A   26192.68747334 -.00000119  00000+0  00000+0 0  9991
2 37218   5.1752  50.8092 0002402  33.1428 351.8196  1.00276028 57445
HYLAS 1                 
1 37237U 10065A   26192.85557721  .00000147  00000+0  00000+0 0  9994
2 37237   5.7032  72.7139 0001191 148.8534  44.1291  1.00639206  7134
INTELSAT 17 (IS-17)     
1 37238U 10065B   26192.88938524  .00000002  00000+0  00000+0 0  9992
2 37238   0.0194  92.2512 0002647  24.0857 199.6252  1.00271973 53490
BEIDOU-2 IGSO-2         
1 37256U 10068A   26192.70453418 -.00000193  00000+0  00000+0 0  9992
2 37256  47.5028 271.5270 0057158 213.6994 166.3305  1.00274707 57043
EUTELSAT KA-SAT 9A      
1 37258U 10069A   26192.85185053  .00000065  00000+0  00000+0 0  9995
2 37258   0.0612  15.0232 0004337 125.7263 104.6574  1.00270294 44259
HISPASAT 30W-5          
1 37264U 10070A   26192.77286953 -.00000212  00000+0  00000+0 0  9991
2 37264   0.0245 119.9565 0005523   5.6057  52.3497  1.00271150 53431
KOREASAT 6              
1 37265U 10070B   26192.73915603  .00000000  00000+0  00000+0 0  9993
2 37265   0.0270  41.4674 0002429  84.9069 229.2678  1.00270294 57017
BEIDOU-2 IGSO-3         
1 37384U 11013A   26192.51462598 -.00000168  00000+0  00000+0 0  9995
2 37384  62.4411  39.9226 0035206 183.2728 358.1795  1.00261228 55902
INTELSAT 28 (IS-28)     
1 37392U 11016A   26192.77252286 -.00000222  00000+0  00000+0 0  9997
2 37392   1.8670  82.3161 0003677  38.6451  55.1010  1.00271817 53534
YAHSAT 1A               
1 37393U 11016B   26192.21886769  .00000000  00000+0  00000+0 0  9999
2 37393   0.0267  52.8553 0003073  62.5035 305.0613  1.00271734 42643
SBIRS GEO-1 (USA 230)   
1 37481U 11019A   26192.68469528  .00000100  00000+0  00000+0 0  9992
2 37481   4.5890  53.1067 0002009  49.3897 125.3803  1.00272377 55645
TELSTAR 14R             
1 37602U 11021A   26192.96777097 -.00000276  00000+0  00000+0 0  9999
2 37602   0.0786  84.5960 0001652 358.9846 131.6912  1.00270577 56081
GSAT-8                  
1 37605U 11022A   26192.86100477  .00000086  00000+0  00000+0 0  9992
2 37605   2.1921  81.5239 0002708 165.6444  47.6313  1.00272028 53467
ST-2                    
1 37606U 11022B   26192.90463821  .00000000  00000+0  00000+0 0  9999
2 37606   0.0266  48.7826 0001450  81.7273 212.9815  1.00271347 55521
ZHONGXING-10            
1 37677U 11026A   26192.89936892 -.00000185  00000+0  00000+0 0  9997
2 37677   1.1071  83.9288 0003288  22.5711 232.5603  1.00268885 55244
SES-3                   
1 37748U 11035A   26192.61579741 -.00000098  00000+0  00000+0 0  9995
2 37748   1.3869  82.8115 0001907  28.6059 296.8001  1.00271372 54839
KAZSAT-2                
1 37749U 11035B   26192.86724479 -.00000193  00000+0  00000+0 0  9999
2 37749   0.0242 118.7388 0002090  54.6550 155.0795  1.00269503 53648
BEIDOU-2 IGSO-4         
1 37763U 11038A   26192.95235030  .00000001  00000+0  00000+0 0  9995
2 37763  54.6042 165.4533 0160283 231.4099 330.0593  1.00279662 54896
ASTRA 1N                
1 37775U 11041A   26192.86155862  .00000123  00000+0  00000+0 0  9991
2 37775   0.0754  34.5842 0005574  73.9500 150.5861  1.00269545 44778
BSAT-3C (JCSAT-110R)    
1 37776U 11041B   26192.93175894 -.00000347  00000+0  00000+0 0  9996
2 37776   0.0276 319.6884 0000191 273.4784 142.0522  1.00271725 50716
