OBJECT_NAME,OBJECT_ID,EPOCH,MEAN_MOTION,ECCENTRICITY,INCLINATION,RA_OF_ASC_NODE,ARG_OF_PERICENTER,MEAN_ANOMALY,EPHEMERIS_TYPE,CLASSIFICATION_TYPE,NORAD_CAT_ID,ELEMENT_SET_NO,REV_AT_EPOCH,BSTAR,MEAN_MOTION_DOT,MEAN_MOTION_DDOT
BEIDOU-2 G3,2010-024A,2026-07-11T20:26:47.830272,1.00268897,.00070991,4.5707,61.3980,359.3301,255.3219,0,U,36590,999,5901,0,-.135E-5,0
BADR-5,2010-025A,2026-07-11T22:18:38.807712,1.00268787,.00049891,0.0447,125.6006,70.4902,98.8729,0,U,36592,999,5346,0,.157E-5,0
COMS 1,2010-032A,2026-07-11T08:19:04.481760,0.99168841,.00112649,4.8643,75.0643,14.7082,301.5980,0,U,36744,999,5132,0,-.239E-5,0
ARABSAT-5A,2010-032B,2026-07-11T22:18:38.807712,1.00272599,.00057013,0.1038,65.0011,55.3469,174.6218,0,U,36745,999,5889,0,.157E-5,0
ECHOSTAR 15,2010-034A,2026-07-11T16:24:35.711424,1.00271172,.00018695,0.0545,270.7559,177.7655,328.3945,0,U,36792,999,5856,0,.5E-7,0
BEIDOU-2 IGSO-1,2010-036A,2026-07-11T20:26:37.726656,1.00264608,.0058925,54.3064,162.7376,225.2565,315.6066,0,U,36828,999,5834,0,-.89E-6,0
NILESAT 201,2010-037A,2026-07-11T20:22:10.316928,1.00271738,.00054673,0.0258,136.4535,1.5002,90.3533,0,U,36830,999,5862,0,-.53E-6,0
RASCOM-QAF 1R,2010-037B,2026-07-11T20:24:55.053216,1.00272557,.00064648,0.0260,79.8570,21.5780,137.4323,0,U,36831,999,5855,0,.23E-6,0
AEHF-1 (USA 214),2010-039A,2026-07-11T19:49:45.528960,1.00272875,.00036971,8.2790,67.7230,37.4198,151.9554,0,U,36868,999,5390,0,.144E-5,0
XM-5,2010-053A,2026-07-11T16:25:58.080000,1.00268056,.00016888,0.0649,266.6114,325.2046,189.0672,0,U,37185,999,5772,0,-.18E-6,0
BSAT-3B,2010-056B,2026-07-11T22:21:44.006976,1.00270842,.00026,0.0681,230.3038,314.3176,190.4814,0,U,37207,999,5234,0,-.346E-5,0
BEIDOU-2 G4,2010-057A,2026-07-11T14:19:10.039872,1.00270060,.00055669,3.7036,68.7942,185.0953,50.3442,0,U,37210,999,5753,0,-.112E-5,0
SKYTERRA 1,2010-061A,2026-07-11T16:29:57.696576,1.00276028,.0002402,5.1752,50.8092,33.1428,351.8196,0,U,37218,999,5744,0,-.119E-5,0
HYLAS 1,2010-065A,2026-07-11T20:32:01.870944,1.00639206,.00011915,5.7032,72.7139,148.8534,44.1291,0,U,37237,999,713,0,.147E-5,0
INTELSAT 17 (IS-17),2010-065B,2026-07-11T21:20:42.884736,1.00271973,.00026479,0.0194,92.2512,24.0857,199.6252,0,U,37238,999,5349,0,.2E-7,0
BEIDOU-2 IGSO-2,2010-068A,2026-07-11T16:54:31.753152,1.00274707,.00571589,47.5028,271.5270,213.6994,166.3305,0,U,37256,999,5704,0,-.193E-5,0
EUTELSAT KA-SAT 9A,2010-069A,2026-07-11T20:26:39.885792,1.00270294,.00043374,0.0612,15.0232,125.7263,104.6574,0,U,37258,999,4425,0,.65E-6,0
HISPASAT 30W-5,2010-070A,2026-07-11T18:32:55.927392,1.00271150,.00055236,0.0245,119.9565,5.6057,52.3497,0,U,37264,999,5343,0,-.212E-5,0
KOREASAT 6,2010-070B,2026-07-11T17:44:23.080992,1.00270294,.00024296,0.0270,41.4674,84.9069,229.2678,0,U,37265,999,5701,0,0,0
BEIDOU-2 IGSO-3,2011-013A,2026-07-11T12:21:03.684672,1.00261228,.0035206,62.4411,39.9226,183.2728,358.1795,0,U,37384,999,5590,0,-.168E-5,0
INTELSAT 28 (IS-28),2011-016A,2026-07-11T18:32:25.975104,1.00271817,.00036773,1.8670,82.3161,38.6451,55.1010,0,U,37392,999,5353,0,-.222E-5,0
YAHSAT 1A,2011-016B,2026-07-11T05:15:10.168416,1.00271734,.00030738,0.0267,52.8553,62.5035,305.0613,0,U,37393,999,4264,0,0,0
SBIRS GEO-1 (USA 230),2011-019A,2026-07-11T16:25:57.672192,1.00272377,.00020091,4.5890,53.1067,49.3897,125.3803,0,U,37481,999,5564,0,.1E-5,0
TELSTAR 14R,2011-021A,2026-07-11T23:13:35.411808,1.00270577,.00016526,0.0786,84.5960,358.9846,131.6912,0,U,37602,999,5608,0,-.276E-5,0
GSAT-8,2011-022A,2026-07-11T20:39:50.812128,1.00272028,.00027084,2.1921,81.5239,165.6444,47.6313,0,U,37605,999,5346,0,.86E-6,0
ST-2,2011-022B,2026-07-11T21:42:40.741344,1.00271347,.00014506,0.0266,48.7826,81.7273,212.9815,0,U,37606,999,5552,0,0,0
ZHONGXING-10,2011-026A,2026-07-11T21:35:05.474688,1.00268885,.00032884,1.1071,83.9288,22.5711,232.5603,0,U,37677,999,5524,0,-.185E-5,0
SES-3,2011-035A,2026-07-11T14:46:44.896224,1.00271372,.0001907,1.3869,82.8115,28.6059,296.8001,0,U,37748,999,5483,0,-.98E-6,0
KAZSAT-2,2011-035B,2026-07-11T20:48:49.949856,1.00269503,.00020906,0.0242,118.7388,54.6550,155.0795,0,U,37749,999,5364,0,-.193E-5,0
BEIDOU-2 IGSO-4,2011-038A,2026-07-11T22:51:23.065920,1.00279662,.01602835,54.6042,165.4533,231.4099,330.0593,0,U,37763,999,5489,0,.1E-7,0
ASTRA 1N,2011-041A,2026-07-11T20:40:38.664768,1.00269545,.00055741,0.0754,34.5842,73.9500,150.5861,0,U,37775,999,4477,0,.123E-5,0
BSAT-3C (JCSAT-110R),2011-041B,2026-07-11T22:21:43.972416,1.00271725,.00001919,0.0276,319.6884,273.4784,142.0522,0,U,37776,999,5071,0,-.347E-5,0
